start=new Date('2022-10-14T00:00:00.000Z').valueOf();
sats=[{"REV_AT_EPOCH":"9038","FILE":"3609209","EPHEMERIS_TYPE":"0","OBJECT_ID":"2021-017BG","SITE":"AFETR","PERIAPSIS":"546.068","SEMIMAJOR_AXIS":"6925.342","DECAY_DATE":null,"CLASSIFICATION_TYPE":"U","MEAN_MOTION_DDOT":"0.0000000000000","COUNTRY_CODE":"US","ARG_OF_PERICENTER":"63.6017","MEAN_ELEMENT_THEORY":"SGP4","MEAN_MOTION_DOT":"0.00005679","TIME_SYSTEM":"UTC","NORAD_CAT_ID":"47776","LAUNCH_DATE":"2021-03-04","CENTER_NAME":"EARTH","RA_OF_ASC_NODE":"32.1768","APOAPSIS":"548.345","BSTAR":"0.00039980000000","OBJECT_NAME":"STARLINK-2209","EPOCH":"2022-10-13T13:51:12.910464","MEAN_MOTION":"15.06402217","RCS_SIZE":"LARGE","GP_ID":"214992434","REF_FRAME":"TEME","ECCENTRICITY":"0.00016440","ELEMENT_SET_NO":"999","TLE_LINE1":"1 47776U 21017BG  22286.57723276  .00005679  00000-0  39980-3 0  9990","OBJECT_TYPE":"PAYLOAD","INCLINATION":"53.0567","TLE_LINE2":"2 47776  53.0567  32.1768 0001644  63.6017 296.5140 15.06402217 90389","MEAN_ANOMALY":"296.5140","PERIOD":"95.592"},{"EPOCH":"2022-10-13T13:56:31.397280","BSTAR":"0.00015515000000","OBJECT_NAME":"STARLINK-2210","MEAN_MOTION":"15.06395488","RCS_SIZE":"LARGE","REF_FRAME":"TEME","GP_ID":"214992684","ELEMENT_SET_NO":"999","ECCENTRICITY":"0.00019060","OBJECT_TYPE":"PAYLOAD","TLE_LINE1":"1 47777U 21017BH  22286.58091895  .00002030  00000-0  15515-3 0  9993","MEAN_ANOMALY":"314.5555","PERIOD":"95.592","INCLINATION":"53.0555","TLE_LINE2":"2 47777  53.0555  32.1574 0001906  45.5589 314.5555 15.06395488 90388","OBJECT_ID":"2021-017BH","EPHEMERIS_TYPE":"0","FILE":"3609209","REV_AT_EPOCH":"9038","SEMIMAJOR_AXIS":"6925.362","PERIAPSIS":"545.907","SITE":"AFETR","MEAN_MOTION_DDOT":"0.0000000000000","DECAY_DATE":null,"CLASSIFICATION_TYPE":"U","ARG_OF_PERICENTER":"45.5589","COUNTRY_CODE":"US","MEAN_MOTION_DOT":"0.00002030","NORAD_CAT_ID":"47777","TIME_SYSTEM":"UTC","MEAN_ELEMENT_THEORY":"SGP4","RA_OF_ASC_NODE":"32.1574","LAUNCH_DATE":"2021-03-04","CENTER_NAME":"EARTH","APOAPSIS":"548.547"},{"OBJECT_TYPE":"PAYLOAD","TLE_LINE1":"1 47778U 21017BJ  22286.48140634  .00000735  00000-0  68236-4 0  9998","TLE_LINE2":"2 47778  53.0569  32.5947 0001218  74.0987 286.0136 15.06377145 90363","INCLINATION":"53.0569","MEAN_ANOMALY":"286.0136","PERIOD":"95.594","MEAN_MOTION":"15.06377145","RCS_SIZE":"LARGE","BSTAR":"0.00006823600000","OBJECT_NAME":"STARLINK-2211","EPOCH":"2022-10-13T11:33:13.507776","ELEMENT_SET_NO":"999","ECCENTRICITY":"0.00012180","GP_ID":"214992936","REF_FRAME":"TEME","CENTER_NAME":"EARTH","LAUNCH_DATE":"2021-03-04","RA_OF_ASC_NODE":"32.5947","MEAN_ELEMENT_THEORY":"SGP4","MEAN_MOTION_DOT":"0.00000735","TIME_SYSTEM":"UTC","NORAD_CAT_ID":"47778","APOAPSIS":"548.127","SITE":"AFETR","PERIAPSIS":"546.440","SEMIMAJOR_AXIS":"6925.419","REV_AT_EPOCH":"9036","FILE":"3609209","EPHEMERIS_TYPE":"0","OBJECT_ID":"2021-017BJ","COUNTRY_CODE":"US","ARG_OF_PERICENTER":"74.0987","DECAY_DATE":null,"CLASSIFICATION_TYPE":"U","MEAN_MOTION_DDOT":"0.0000000000000"},{"APOAPSIS":"530.479","RA_OF_ASC_NODE":"15.9386","CENTER_NAME":"EARTH","LAUNCH_DATE":"2021-03-04","NORAD_CAT_ID":"47779","TIME_SYSTEM":"UTC","MEAN_MOTION_DOT":"0.00001308","MEAN_ELEMENT_THEORY":"SGP4","ARG_OF_PERICENTER":"35.4783","COUNTRY_CODE":"US","MEAN_MOTION_DDOT":"0.0000000000000","CLASSIFICATION_TYPE":"U","DECAY_DATE":null,"PERIAPSIS":"527.506","SEMIMAJOR_AXIS":"6907.128","SITE":"AFETR","OBJECT_ID":"2021-017BK","EPHEMERIS_TYPE":"0","FILE":"3608626","REV_AT_EPOCH":"8997","MEAN_ANOMALY":"324.6352","PERIOD":"95.215","TLE_LINE2":"2 47779  53.0561  15.9386 0002152  35.4783 324.6352 15.12364664 89974","INCLINATION":"53.0561","OBJECT_TYPE":"PAYLOAD","TLE_LINE1":"1 47779U 21017BK  22286.62973954  .00001308  00000-0  91560-4 0  9997","ELEMENT_SET_NO":"999","ECCENTRICITY":"0.00021520","REF_FRAME":"TEME","GP_ID":"214957076","RCS_SIZE":"LARGE","MEAN_MOTION":"15.12364664","EPOCH":"2022-10-13T15:06:49.496256","OBJECT_NAME":"STARLINK-2212","BSTAR":"0.00009156000000"},{"OBJECT_TYPE":"PAYLOAD","TLE_LINE1":"1 47780U 21017BL  22286.44085377  .00005941  00000-0  41738-3 0  9990","INCLINATION":"53.0565","TLE_LINE2":"2 47780  53.0565  32.7707 0001394  67.5537 292.5599 15.06402990 90396","PERIOD":"95.592","MEAN_ANOMALY":"292.5599","RCS_SIZE":"LARGE","MEAN_MOTION":"15.06402990","OBJECT_NAME":"STARLINK-2213","BSTAR":"0.00041738000000","EPOCH":"2022-10-13T10:34:49.765728","ECCENTRICITY":"0.00013940","ELEMENT_SET_NO":"999","GP_ID":"214991935","REF_FRAME":"TEME","CENTER_NAME":"EARTH","LAUNCH_DATE":"2021-03-04","RA_OF_ASC_NODE":"32.7707","MEAN_ELEMENT_THEORY":"SGP4","TIME_SYSTEM":"UTC","NORAD_CAT_ID":"47780","MEAN_MOTION_DOT":"0.00005941","APOAPSIS":"548.170","SITE":"AFETR","SEMIMAJOR_AXIS":"6925.339","PERIAPSIS":"546.239","FILE":"3609209","REV_AT_EPOCH":"9039","OBJECT_ID":"2021-017BL","EPHEMERIS_TYPE":"0","COUNTRY_CODE":"US","ARG_OF_PERICENTER":"67.5537","DECAY_DATE":null,"CLASSIFICATION_TYPE":"U","MEAN_MOTION_DDOT":"0.0000000000000"},{"GP_ID":"214992185","REF_FRAME":"TEME","ELEMENT_SET_NO":"999","ECCENTRICITY":"0.00015010","OBJECT_NAME":"STARLINK-2223","BSTAR":"0.00018655000000","EPOCH":"2022-10-13T11:22:36.488352","RCS_SIZE":"LARGE","MEAN_MOTION":"15.06387625","TLE_LINE2":"2 47781  53.0559  32.6211 0001501  69.8699 290.2451 15.06387625 90358","INCLINATION":"53.0559","MEAN_ANOMALY":"290.2451","PERIOD":"95.593","OBJECT_TYPE":"PAYLOAD","TLE_LINE1":"1 47781U 21017BM  22286.47403343  .00002497  00000-0  18655-3 0  9996","CLASSIFICATION_TYPE":"U","DECAY_DATE":null,"MEAN_MOTION_DDOT":"0.0000000000000","COUNTRY_CODE":"US","ARG_OF_PERICENTER":"69.8699","REV_AT_EPOCH":"9035","FILE":"3609209","OBJECT_ID":"2021-017BM","EPHEMERIS_TYPE":"0","SITE":"AFETR","SEMIMAJOR_AXIS":"6925.386","PERIAPSIS":"546.212","APOAPSIS":"548.291","MEAN_ELEMENT_THEORY":"SGP4","NORAD_CAT_ID":"47781","TIME_SYSTEM":"UTC","MEAN_MOTION_DOT":"0.00002497","CENTER_NAME":"EARTH","LAUNCH_DATE":"2021-03-04","RA_OF_ASC_NODE":"32.6211"},{"GP_ID":"215026753","REF_FRAME":"TEME","ECCENTRICITY":"0.00012430","ELEMENT_SET_NO":"999","OBJECT_NAME":"STARLINK-2257","BSTAR":"0.00014225000000","EPOCH":"2022-10-13T19:46:50.075616","RCS_SIZE":"LARGE","MEAN_MOTION":"15.06388014","INCLINATION":"53.0558","TLE_LINE2":"2 47787  53.0558  71.0559 0001243  94.9891 265.1240 15.06388014 89269","PERIOD":"95.593","MEAN_ANOMALY":"265.1240","OBJECT_TYPE":"PAYLOAD","TLE_LINE1":"1 47787U 21018A   22286.82419069  .00001837  00000-0  14225-3 0  9990","CLASSIFICATION_TYPE":"U","DECAY_DATE":null,"MEAN_MOTION_DDOT":"0.0000000000000","COUNTRY_CODE":"US","ARG_OF_PERICENTER":"94.9891","REV_AT_EPOCH":"8926","FILE":"3609636","OBJECT_ID":"2021-018A","EPHEMERIS_TYPE":"0","SITE":"AFETR","PERIAPSIS":"546.389","SEMIMAJOR_AXIS":"6925.385","APOAPSIS":"548.111","MEAN_ELEMENT_THEORY":"SGP4","TIME_SYSTEM":"UTC","NORAD_CAT_ID":"47787","MEAN_MOTION_DOT":"0.00001837","CENTER_NAME":"EARTH","LAUNCH_DATE":"2021-03-11","RA_OF_ASC_NODE":"71.0559"},{"GP_ID":"215026989","REF_FRAME":"TEME","ELEMENT_SET_NO":"999","ECCENTRICITY":"0.00016940","BSTAR":"0.00020759000000","OBJECT_NAME":"STARLINK-2314","EPOCH":"2022-10-13T16:52:20.296416","MEAN_MOTION":"15.06391440","RCS_SIZE":"LARGE","INCLINATION":"53.0550","TLE_LINE2":"2 47788  53.0550  46.6108 0001694  55.2650 304.8499 15.06391440 89616","PERIOD":"95.593","MEAN_ANOMALY":"304.8499","TLE_LINE1":"1 47788U 21018B   22286.70301269  .00002811  00000-0  20759-3 0  9992","OBJECT_TYPE":"PAYLOAD","DECAY_DATE":null,"CLASSIFICATION_TYPE":"U","MEAN_MOTION_DDOT":"0.0000000000000","COUNTRY_CODE":"US","ARG_OF_PERICENTER":"55.2650","REV_AT_EPOCH":"8961","FILE":"3609636","OBJECT_ID":"2021-018B","EPHEMERIS_TYPE":"0","SITE":"AFETR","SEMIMAJOR_AXIS":"6925.375","PERIAPSIS":"546.067","APOAPSIS":"548.413","MEAN_ELEMENT_THEORY":"SGP4","MEAN_MOTION_DOT":"0.00002811","NORAD_CAT_ID":"47788","TIME_SYSTEM":"UTC","LAUNCH_DATE":"2021-03-11","CENTER_NAME":"EARTH","RA_OF_ASC_NODE":"46.6108"},{"MEAN_ANOMALY":"287.4114","PERIOD":"95.591","TLE_LINE2":"2 47789  53.0551  51.0896 0000981  72.6983 287.4114 15.06413646 89558","INCLINATION":"53.0551","TLE_LINE1":"1 47789U 21018C   22286.81865775  .00008067  00000-0  55962-3 0  9995","OBJECT_TYPE":"PAYLOAD","ELEMENT_SET_NO":"999","ECCENTRICITY":"0.00009810","REF_FRAME":"TEME","GP_ID":"215025752","RCS_SIZE":"LARGE","MEAN_MOTION":"15.06413646","EPOCH":"2022-10-13T19:38:52.029600","OBJECT_NAME":"STARLINK-2315","BSTAR":"0.00055962000000","APOAPSIS":"547.851","RA_OF_ASC_NODE":"51.0896","LAUNCH_DATE":"2021-03-11","CENTER_NAME":"EARTH","NORAD_CAT_ID":"47789","TIME_SYSTEM":"UTC","MEAN_MOTION_DOT":"0.00008067","MEAN_ELEMENT_THEORY":"SGP4","ARG_OF_PERICENTER":"72.6983","COUNTRY_CODE":"US","MEAN_MOTION_DDOT":"0.0000000000000","CLASSIFICATION_TYPE":"U","DECAY_DATE":null,"SEMIMAJOR_AXIS":"6925.307","PERIAPSIS":"546.492","SITE":"AFETR","EPHEMERIS_TYPE":"0","OBJECT_ID":"2021-018C","FILE":"3609636","REV_AT_EPOCH":"8955"},{"REF_FRAME":"TEME","GP_ID":"214992685","ECCENTRICITY":"0.00017170","ELEMENT_SET_NO":"999","EPOCH":"2022-10-13T14:16:25.599072","BSTAR":"0.00032049000000","OBJECT_NAME":"STARLINK-2319","MEAN_MOTION":"15.06400392","RCS_SIZE":"LARGE","PERIOD":"95.592","MEAN_ANOMALY":"292.4655","INCLINATION":"53.0540","TLE_LINE2":"2 47790  53.0540  42.0909 0001717  67.6516 292.4655 15.06400392 89669","OBJECT_TYPE":"PAYLOAD","TLE_LINE1":"1 47790U 21018D   22286.59474073  .00004495  00000-0  32049-3 0  9991","MEAN_MOTION_DDOT":"0.0000000000000","CLASSIFICATION_TYPE":"U","DECAY_DATE":null,"ARG_OF_PERICENTER":"67.6516","COUNTRY_CODE":"US","OBJECT_ID":"2021-018D","EPHEMERIS_TYPE":"0","FILE":"3609209","REV_AT_EPOCH":"8966","SEMIMAJOR_AXIS":"6925.347","PERIAPSIS":"546.023","SITE":"AFETR","APOAPSIS":"548.401","MEAN_MOTION_DOT":"0.00004495","NORAD_CAT_ID":"47790","TIME_SYSTEM":"UTC","MEAN_ELEMENT_THEORY":"SGP4","RA_OF_ASC_NODE":"42.0909","LAUNCH_DATE":"2021-03-11","CENTER_NAME":"EARTH"}];
